{"fetched_at":"2026-03-29T16:36:15Z","count":15609,"tles":[{"name":"STARLINK-35085","line1":"1 65419U 25192R   26087.43625410  .00028040  00000+0  97981-3 0  9992","line2":"2 65419  53.1600 144.6226 0001097  83.9865 276.1260 15.29374667 32260","category":"Starlink"}]}