{
  "norad_id": 65419,
  "name": "STARLINK-35085",
  "history": [
    {
      "epoch": "2026-03-28T10:28:12.354240",
      "apogee_km": 478.433173346255,
      "perigee_km": 476.9277729455025,
      "latitude_deg": -52.796565698616,
      "longitude_deg": 43.780393599765375,
      "semi_major_axis_km": 6855.8174731458785,
      "eccentricity": 0.00010979,
      "inclination_deg": 53.16,
      "raan_deg": 144.6226,
      "arg_perigee_deg": 83.9865,
      "mean_anomaly_deg": 276.126,
      "mean_motion_rev_day": 15.29374667
    }
  ]
}